{
    "links": {
        "self": "http://www.neowsapp.com/rest/v1/neo/3765942?api_key=iIulBulltgU6a56xZRHN4H3l9WmuAYTsLGpBGhQ2"
    },
    "id": "3765942",
    "neo_reference_id": "3765942",
    "name": "(2016 XZ20)",
    "designation": "2016 XZ20",
    "nasa_jpl_url": "http://ssd.jpl.nasa.gov/sbdb.cgi?sstr=3765942",
    "absolute_magnitude_h": 23.8,
    "estimated_diameter": {
        "kilometers": {
            "estimated_diameter_min": 0.046190746,
            "estimated_diameter_max": 0.1032856481
        },
        "meters": {
            "estimated_diameter_min": 46.1907460282,
            "estimated_diameter_max": 103.2856480504
        },
        "miles": {
            "estimated_diameter_min": 0.0287015901,
            "estimated_diameter_max": 0.0641787064
        },
        "feet": {
            "estimated_diameter_min": 151.544447199,
            "estimated_diameter_max": 338.8636855496
        }
    },
    "is_potentially_hazardous_asteroid": false,
    "close_approach_data": [
        {
            "close_approach_date": "2016-12-02",
            "close_approach_date_full": "2016-Dec-02 15:55",
            "epoch_date_close_approach": 1480694100000,
            "relative_velocity": {
                "kilometers_per_second": "23.4708416722",
                "kilometers_per_hour": "84495.0300197767",
                "miles_per_hour": "52501.9257364552"
            },
            "miss_distance": {
                "astronomical": "0.0230297961",
                "lunar": "8.9585906829",
                "kilometers": "3445208.443094307",
                "miles": "2140753.2584911566"
            },
            "orbiting_body": "Earth"
        }
    ],
    "orbital_data": {
        "orbit_id": "3",
        "orbit_determination_date": "2017-04-06 08:21:31",
        "first_observation_date": "2016-12-09",
        "last_observation_date": "2016-12-18",
        "data_arc_in_days": 9,
        "observations_used": 25,
        "orbit_uncertainty": "9",
        "minimum_orbit_intersection": ".00432016",
        "jupiter_tisserand_invariant": "3.590",
        "epoch_osculation": "2457732.5",
        "eccentricity": ".6899164154463278",
        "semi_major_axis": "1.885146251353135",
        "inclination": "17.81465451296921",
        "ascending_node_longitude": "67.50917646838865",
        "orbital_period": "945.4008753500444",
        "perihelion_distance": ".5845529070274981",
        "perihelion_argument": "272.8849014660549",
        "aphelion_distance": "3.185739595678772",
        "perihelion_time": "2457679.226895454654",
        "mean_anomaly": "20.28591059768544",
        "mean_motion": ".3807908469163478",
        "equinox": "J2000",
        "orbit_class": {
            "orbit_class_type": "APO",
            "orbit_class_description": "Near-Earth asteroid orbits which cross the Earth’s orbit similar to that of 1862 Apollo",
            "orbit_class_range": "a (semi-major axis) > 1.0 AU; q (perihelion) < 1.017 AU"
        }
    },
    "is_sentry_object": false
}